CCSDS_OMM_VERS = 2.0
CREATION_DATE  = 
ORIGINATOR     = 

OBJECT_NAME    = STARLINK-36466
OBJECT_ID      = 2026-003AA
CENTER_NAME    = EARTH
REF_FRAME      = TEME
TIME_SYSTEM    = UTC
MEAN_ELEMENT_THEORY = SGP/SGP4

EPOCH          = 2026-02-05T10:50:03.753312
MEAN_MOTION    = 15.50614793
ECCENTRICITY   = .00011565
INCLINATION    = 42.9987
RA_OF_ASC_NODE = 49.9815
ARG_OF_PERICENTER = 261.7029
MEAN_ANOMALY   = 98.3700

EPHEMERIS_TYPE = 0
CLASSIFICATION_TYPE = U
NORAD_CAT_ID   = 67358
ELEMENT_SET_NO = 999
REV_AT_EPOCH   = 388
BSTAR          = .1500946E-2
MEAN_MOTION_DOT = .8883E-3
MEAN_MOTION_DDOT = 0

CCSDS_OMM_VERS = 2.0
CREATION_DATE  = 
ORIGINATOR     = 

OBJECT_NAME    = STARLINK-36499
OBJECT_ID      = 2026-003AB
CENTER_NAME    = EARTH
REF_FRAME      = TEME
TIME_SYSTEM    = UTC
MEAN_ELEMENT_THEORY = SGP/SGP4

EPOCH          = 2026-02-06T04:00:01.999584
MEAN_MOTION    = 15.43921536
ECCENTRICITY   = .0001229
INCLINATION    = 42.9994
RA_OF_ASC_NODE = 45.8389
ARG_OF_PERICENTER = 268.1895
MEAN_ANOMALY   = 113.4001

EPHEMERIS_TYPE = 0
CLASSIFICATION_TYPE = U
NORAD_CAT_ID   = 67359
ELEMENT_SET_NO = 999
REV_AT_EPOCH   = 560
BSTAR          = -.50176E-1
MEAN_MOTION_DOT = -.2072541E-1
MEAN_MOTION_DDOT = 0

CCSDS_OMM_VERS = 2.0
CREATION_DATE  = 
ORIGINATOR     = 

OBJECT_NAME    = STARLINK-36469
OBJECT_ID      = 2026-003AC
CENTER_NAME    = EARTH
REF_FRAME      = TEME
TIME_SYSTEM    = UTC
MEAN_ELEMENT_THEORY = SGP/SGP4

EPOCH          = 2026-02-06T04:00:01.999584
MEAN_MOTION    = 15.45557923
ECCENTRICITY   = .0001052
INCLINATION    = 43.0000
RA_OF_ASC_NODE = 45.8152
ARG_OF_PERICENTER = 255.5086
MEAN_ANOMALY   = 135.6951

EPHEMERIS_TYPE = 0
CLASSIFICATION_TYPE = U
NORAD_CAT_ID   = 67360
ELEMENT_SET_NO = 999
REV_AT_EPOCH   = 560
BSTAR          = -.4716E-1
MEAN_MOTION_DOT = -.2062179E-1
MEAN_MOTION_DDOT = 0

CCSDS_OMM_VERS = 2.0
CREATION_DATE  = 
ORIGINATOR     = 

OBJECT_NAME    = STARLINK-35306
OBJECT_ID      = 2026-003AD
CENTER_NAME    = EARTH
REF_FRAME      = TEME
TIME_SYSTEM    = UTC
MEAN_ELEMENT_THEORY = SGP/SGP4

EPOCH          = 2026-02-05T09:15:49.153248
MEAN_MOTION    = 15.50627940
ECCENTRICITY   = .00019593
INCLINATION    = 42.9979
RA_OF_ASC_NODE = 50.3477
ARG_OF_PERICENTER = 275.0496
MEAN_ANOMALY   = 85.0140

EPHEMERIS_TYPE = 0
CLASSIFICATION_TYPE = U
NORAD_CAT_ID   = 67361
ELEMENT_SET_NO = 999
REV_AT_EPOCH   = 387
BSTAR          = .18742101E-2
MEAN_MOTION_DOT = .111383E-2
MEAN_MOTION_DDOT = 0

CCSDS_OMM_VERS = 2.0
CREATION_DATE  = 
ORIGINATOR     = 

OBJECT_NAME    = STARLINK-36428
OBJECT_ID      = 2026-003AE
CENTER_NAME    = EARTH
REF_FRAME      = TEME
TIME_SYSTEM    = UTC
MEAN_ELEMENT_THEORY = SGP/SGP4

EPOCH          = 2026-02-05T09:15:19.521504
MEAN_MOTION    = 15.50641479
ECCENTRICITY   = .00022336
INCLINATION    = 42.9974
RA_OF_ASC_NODE = 50.3443
ARG_OF_PERICENTER = 269.5748
MEAN_ANOMALY   = 90.4856

EPHEMERIS_TYPE = 0
CLASSIFICATION_TYPE = U
NORAD_CAT_ID   = 67362
ELEMENT_SET_NO = 999
REV_AT_EPOCH   = 387
BSTAR          = .18165689E-2
MEAN_MOTION_DOT = .107953E-2
MEAN_MOTION_DDOT = 0

CCSDS_OMM_VERS = 2.0
CREATION_DATE  = 
ORIGINATOR     = 

OBJECT_NAME    = TWILIGHT A
OBJECT_ID      = 2026-004A
CENTER_NAME    = EARTH
REF_FRAME      = TEME
TIME_SYSTEM    = UTC
MEAN_ELEMENT_THEORY = SGP/SGP4

EPOCH          = 2026-02-06T04:26:47.721120
MEAN_MOTION    = 14.87048587
ECCENTRICITY   = .0008151
INCLINATION    = 97.8002
RA_OF_ASC_NODE = 37.8898
ARG_OF_PERICENTER = 201.6521
MEAN_ANOMALY   = 158.4352

EPHEMERIS_TYPE = 0
CLASSIFICATION_TYPE = U
NORAD_CAT_ID   = 67363
ELEMENT_SET_NO = 999
REV_AT_EPOCH   = 380
BSTAR          = .80783E-3
MEAN_MOTION_DOT = .7197E-4
MEAN_MOTION_DDOT = 0

CCSDS_OMM_VERS = 2.0
CREATION_DATE  = 
ORIGINATOR     = 

OBJECT_NAME    = TWILIGHT B
OBJECT_ID      = 2026-004B
CENTER_NAME    = EARTH
REF_FRAME      = TEME
TIME_SYSTEM    = UTC
MEAN_ELEMENT_THEORY = SGP/SGP4

EPOCH          = 2026-02-06T02:47:27.327264
MEAN_MOTION    = 14.87181051
ECCENTRICITY   = .0008077
INCLINATION    = 97.8004
RA_OF_ASC_NODE = 37.8263
ARG_OF_PERICENTER = 197.3064
MEAN_ANOMALY   = 162.7878

EPHEMERIS_TYPE = 0
CLASSIFICATION_TYPE = U
NORAD_CAT_ID   = 67364
ELEMENT_SET_NO = 999
REV_AT_EPOCH   = 380
BSTAR          = .94461E-3
MEAN_MOTION_DOT = .8454E-4
MEAN_MOTION_DDOT = 0

CCSDS_OMM_VERS = 2.0
CREATION_DATE  = 
ORIGINATOR     = 

OBJECT_NAME    = TWILIGHT C
OBJECT_ID      = 2026-004C
CENTER_NAME    = EARTH
REF_FRAME      = TEME
TIME_SYSTEM    = UTC
MEAN_ELEMENT_THEORY = SGP/SGP4

EPOCH          = 2026-02-06T04:23:49.382880
MEAN_MOTION    = 14.87202462
ECCENTRICITY   = .0007678
INCLINATION    = 97.7981
RA_OF_ASC_NODE = 37.8886
ARG_OF_PERICENTER = 202.3595
MEAN_ANOMALY   = 157.7287

EPHEMERIS_TYPE = 0
CLASSIFICATION_TYPE = U
NORAD_CAT_ID   = 67365
ELEMENT_SET_NO = 999
REV_AT_EPOCH   = 381
BSTAR          = .88144E-3
MEAN_MOTION_DOT = .7888E-4
MEAN_MOTION_DDOT = 0

CCSDS_OMM_VERS = 2.0
CREATION_DATE  = 
ORIGINATOR     = 

OBJECT_NAME    = TWILIGHT D
OBJECT_ID      = 2026-004D
CENTER_NAME    = EARTH
REF_FRAME      = TEME
TIME_SYSTEM    = UTC
MEAN_ELEMENT_THEORY = SGP/SGP4

EPOCH          = 2026-02-06T02:46:38.171712
MEAN_MOTION    = 14.87147219
ECCENTRICITY   = .0008268
INCLINATION    = 97.8037
RA_OF_ASC_NODE = 37.8327
ARG_OF_PERICENTER = 191.1750
MEAN_ANOMALY   = 168.9283

EPHEMERIS_TYPE = 0
CLASSIFICATION_TYPE = U
NORAD_CAT_ID   = 67366
ELEMENT_SET_NO = 999
REV_AT_EPOCH   = 380
BSTAR          = .52639E-3
MEAN_MOTION_DOT = .4681E-4
MEAN_MOTION_DDOT = 0

CCSDS_OMM_VERS = 2.0
CREATION_DATE  = 
ORIGINATOR     = 

OBJECT_NAME    = TWILIGHT E
OBJECT_ID      = 2026-004E
CENTER_NAME    = EARTH
REF_FRAME      = TEME
TIME_SYSTEM    = UTC
MEAN_ELEMENT_THEORY = SGP/SGP4

EPOCH          = 2026-02-06T04:20:58.916544
MEAN_MOTION    = 14.87322916
ECCENTRICITY   = .0007122
INCLINATION    = 97.7969
RA_OF_ASC_NODE = 37.8890
ARG_OF_PERICENTER = 203.8283
MEAN_ANOMALY   = 156.2604

EPHEMERIS_TYPE = 0
CLASSIFICATION_TYPE = U
NORAD_CAT_ID   = 67367
ELEMENT_SET_NO = 999
REV_AT_EPOCH   = 381
BSTAR          = .86431E-3
MEAN_MOTION_DOT = .7756E-4
MEAN_MOTION_DDOT = 0

CCSDS_OMM_VERS = 2.0
CREATION_DATE  = 
ORIGINATOR     = 

OBJECT_NAME    = TWILIGHT F
OBJECT_ID      = 2026-004F
CENTER_NAME    = EARTH
REF_FRAME      = TEME
TIME_SYSTEM    = UTC
MEAN_ELEMENT_THEORY = SGP/SGP4

EPOCH          = 2026-02-06T02:43:12.905184
MEAN_MOTION    = 14.87344809
ECCENTRICITY   = .0007609
INCLINATION    = 97.8029
RA_OF_ASC_NODE = 37.8350
ARG_OF_PERICENTER = 192.3812
MEAN_ANOMALY   = 167.7219

EPHEMERIS_TYPE = 0
CLASSIFICATION_TYPE = U
NORAD_CAT_ID   = 67368
ELEMENT_SET_NO = 999
REV_AT_EPOCH   = 380
BSTAR          = .79174E-3
MEAN_MOTION_DOT = .7104E-4
MEAN_MOTION_DDOT = 0

CCSDS_OMM_VERS = 2.0
CREATION_DATE  = 
ORIGINATOR     = 

OBJECT_NAME    = TWILIGHT G
OBJECT_ID      = 2026-004G
CENTER_NAME    = EARTH
REF_FRAME      = TEME
TIME_SYSTEM    = UTC
MEAN_ELEMENT_THEORY = SGP/SGP4

EPOCH          = 2026-02-06T02:42:26.319168
MEAN_MOTION    = 14.87285215
ECCENTRICITY   = .0006496
INCLINATION    = 97.7961
RA_OF_ASC_NODE = 37.8232
ARG_OF_PERICENTER = 206.0185
MEAN_ANOMALY   = 154.0705

EPHEMERIS_TYPE = 0
CLASSIFICATION_TYPE = U
NORAD_CAT_ID   = 67369
ELEMENT_SET_NO = 999
REV_AT_EPOCH   = 380
BSTAR          = .39147E-3
MEAN_MOTION_DOT = .3478E-4
MEAN_MOTION_DDOT = 0

