STARLINK-36466          
1 67358U 26003AA  26036.45143233  .00088830  00000+0  15009-2 0  9995
2 67358  42.9987  49.9815 0001156 261.7029  98.3700 15.50614793  3883
STARLINK-36499          
1 67359U 26003AB  26037.16668981 -.02072541  00000+0 -50176-1 0  9996
2 67359  42.9994  45.8389 0001229 268.1895 113.4001 15.43921536  5609
STARLINK-36469          
1 67360U 26003AC  26037.16668981 -.02062179  00000+0 -47160-1 0  9993
2 67360  43.0000  45.8152 0001052 255.5086 135.6951 15.45557923  5602
STARLINK-35306          
1 67361U 26003AD  26036.38598557  .00111383  00000+0  18742-2 0  9991
2 67361  42.9979  50.3477 0001959 275.0496  85.0140 15.50627940  3873
STARLINK-36428          
1 67362U 26003AE  26036.38564261  .00107953  00000+0  18166-2 0  9995
2 67362  42.9974  50.3443 0002233 269.5748  90.4856 15.50641479  3873
TWILIGHT A              
1 67363U 26004A   26037.18527455  .00007197  00000+0  80783-3 0  9994
2 67363  97.8002  37.8898 0008151 201.6521 158.4352 14.87048587  3809
TWILIGHT B              
1 67364U 26004B   26037.11628851  .00008454  00000+0  94461-3 0  9995
2 67364  97.8004  37.8263 0008077 197.3064 162.7878 14.87181051  3803
TWILIGHT C              
1 67365U 26004C   26037.18321045  .00007888  00000+0  88144-3 0  9999
2 67365  97.7981  37.8886 0007678 202.3595 157.7287 14.87202462  3819
TWILIGHT D              
1 67366U 26004D   26037.11571958  .00004681  00000+0  52639-3 0  9991
2 67366  97.8037  37.8327 0008268 191.1750 168.9283 14.87147219  3804
TWILIGHT E              
1 67367U 26004E   26037.18123746  .00007756  00000+0  86431-3 0  9990
2 67367  97.7969  37.8890 0007122 203.8283 156.2604 14.87322916  3810
TWILIGHT F              
1 67368U 26004F   26037.11334381  .00007104  00000+0  79174-3 0  9996
2 67368  97.8029  37.8350 0007609 192.3812 167.7219 14.87344809  3803
TWILIGHT G              
1 67369U 26004G   26037.11280462  .00003478  00000+0  39147-3 0  9993
2 67369  97.7961  37.8232 0006496 206.0185 154.0705 14.87285215  3800
